NORAD_CAT_ID,OBJECT_NAME,OBJECT_TYPE,EPOCH,MEAN_MOTION,ECCENTRICITY,INCLINATION,RA_OF_ASC_NODE,ARG_OF_PERICENTER,MEAN_ANOMALY,BSTAR,MEAN_MOTION_DOT,MEAN_MOTION_DDOT,TLE_LINE0,TLE_LINE1,TLE_LINE2,SEMIMAJOR_AXIS,PERIOD,APOGEE,PERIGEE,DECAYED
55643.0,STARLINK-5483,PAYLOAD,2024-05-28 02:13:52,14.98332485,0.0002835,70.0007,25.0254,262.2102,97.8736,7.3951e-05,7.9e-06,0.0,0 STARLINK-5483,1 55643U 23021R   24149.09297419  .00000790  00000-0  73951-4 0  9997,2 55643  70.0007  25.0254 0002835 262.2102  97.8736 14.98332485 71038,6950.185,96.107,574.021,570.08,0.0
55643.0,STARLINK-5483,PAYLOAD,2024-05-28 08:38:25,14.98334856,0.0002782,70.0009,24.3519,263.4199,96.6644,3.2708e-05,2.97e-06,0.0,0 STARLINK-5483,1 55643U 23021R   24149.36001319  .00000297  00000-0  32708-4 0  9996,2 55643  70.0009  24.3519 0002782 263.4199  96.6644 14.98334856 71372,6950.178,96.107,573.976,570.109,0.0
55643.0,STARLINK-5483,PAYLOAD,2024-05-28 21:27:29,14.98331211,0.0002693,70.001,23.0057,257.7322,102.3536,-5.045e-05,-6.95e-06,0.0,0 STARLINK-5483,1 55643U 23021R   24149.89409676 -.00000695  00000-0 -50450-4 0  9990,2 55643  70.0010  23.0057 0002693 257.7322 102.3536 14.98331211 71458,6950.189,96.107,573.926,570.182,0.0
55643.0,STARLINK-5483,PAYLOAD,2024-05-29 00:39:46,14.9833006,0.0002713,70.001,22.6692,259.4566,100.6288,-6.3296e-05,-8.48e-06,0.0,0 STARLINK-5483,1 55643U 23021R   24150.02761784 -.00000848  00000-0 -63296-4 0  9990,2 55643  70.0010  22.6692 0002713 259.4566 100.6288 14.98330060 71175,6950.193,96.107,573.943,570.172,0.0
55643.0,STARLINK-5483,PAYLOAD,2024-05-29 21:29:30,14.98329068,0.0002776,70.0007,20.4806,259.3703,100.7143,-3.978e-05,-5.68e-06,0.0,0 STARLINK-5483,1 55643U 23021R   24150.89549722 -.00000568  00000-0 -39780-4 0  9991,2 55643  70.0007  20.4806 0002776 259.3703 100.7143 14.98329068 71600,6950.196,96.107,573.99,570.131,0.0
55643.0,STARLINK-5483,PAYLOAD,2024-05-30 00:41:47,14.98329342,0.0002773,70.0007,20.1439,259.764,100.3206,-3.5275e-05,-5.14e-06,0.0,0 STARLINK-5483,1 55643U 23021R   24151.02901697 -.00000514  00000-0 -35275-4 0  9996,2 55643  70.0007  20.1439 0002773 259.7640 100.3206 14.98329342 71320,6950.195,96.107,573.987,570.133,0.0
55643.0,STARLINK-5483,PAYLOAD,2024-05-30 21:31:31,14.98331728,0.0003038,69.9999,17.9545,267.8103,92.2708,4.411e-05,4.33e-06,0.0,0 STARLINK-5483,1 55643U 23021R   24151.89689274  .00000433  00000-0  44110-4 0  9991,2 55643  69.9999  17.9545 0003038 267.8103  92.2708 14.98331728 71752,6950.188,96.107,574.164,569.941,0.0
55643.0,STARLINK-5483,PAYLOAD,2024-05-31 00:43:47,14.98334307,0.0003016,70.0,17.6179,268.2052,91.8761,7.205e-05,7.67e-06,0.0,0 STARLINK-5483,1 55643U 23021R   24152.03041003  .00000767  00000-0  72050-4 0  9994,2 55643  70.0000  17.6179 0003016 268.2052  91.8761 14.98334307 71471,6950.18,96.107,574.141,569.948,0.0
55643.0,STARLINK-5483,PAYLOAD,2024-05-31 21:33:32,14.98331947,0.000306,69.9997,15.4299,269.2548,90.8261,1.8365e-05,1.26e-06,0.0,0 STARLINK-5483,1 55643U 23021R   24152.89829203  .00000126  00000-0  18365-4 0  9992,2 55643  69.9997  15.4299 0003060 269.2548  90.8261 14.98331947 71901,6950.187,96.107,574.179,569.925,0.0
55643.0,STARLINK-5483,PAYLOAD,2024-06-01 00:45:48,14.98332322,0.000306,69.9997,15.0932,269.9211,90.1597,3.0589e-05,2.72e-06,0.0,0 STARLINK-5483,1 55643U 23021R   24153.03181128  .00000272  00000-0  30589-4 0  9990,2 55643  69.9997  15.0932 0003060 269.9211  90.1597 14.98332322 71627,6950.186,96.107,574.177,569.924,0.0
55643.0,STARLINK-5483,PAYLOAD,2024-06-01 21:35:33,14.98326533,0.0003151,70.0003,12.9049,272.6447,87.4351,-3.0443e-05,-4.56e-06,0.0,0 STARLINK-5483,1 55643U 23021R   24153.89969666 -.00000456  00000-0 -30443-4 0  9990,2 55643  70.0003  12.9049 0003151 272.6447  87.4351 14.98326533 71754,6950.204,96.107,574.259,569.879,0.0
55643.0,STARLINK-5483,PAYLOAD,2024-06-02 13:36:54,14.98332409,0.0002922,69.9999,11.2207,263.7908,96.2918,-2.9902e-05,-4.5e-06,0.0,0 STARLINK-5483,1 55643U 23021R   24154.56729260 -.00000450  00000-0 -29902-4 0  9991,2 55643  69.9999  11.2207 0002922 263.7908  96.2918 14.98332409 72152,6950.185,96.107,574.081,570.02,0.0
55643.0,STARLINK-5483,PAYLOAD,2024-06-03 00:49:49,14.98349786,0.0002858,70.0002,10.0437,267.0651,93.0181,-0.00023205,-2.862e-05,0.0,0 STARLINK-5483,1 55643U 23021R   24155.03460521 -.00002862  00000-0 -23205-3 0  9994,2 55643  70.0002  10.0437 0002858 267.0651  93.0181 14.98349786 71929,6950.132,96.106,573.983,570.01,0.0
55643.0,STARLINK-5483,PAYLOAD,2024-06-03 07:14:22,14.98340636,0.0003221,69.9997,9.3691,273.9705,86.1086,-0.00014121,-1.778e-05,0.0,0 STARLINK-5483,1 55643U 23021R   24155.30164803 -.00001778  00000-0 -14121-3 0  9990,2 55643  69.9997   9.3691 0003221 273.9705  86.1086 14.98340636 71969,6950.16,96.106,574.264,569.786,0.0
55643.0,STARLINK-5483,PAYLOAD,2024-06-03 20:03:27,14.98328333,0.0002994,70.0003,8.0228,271.9099,88.1717,3.3057e-05,3.01e-06,0.0,0 STARLINK-5483,1 55643U 23021R   24155.83573272  .00000301  00000-0  33057-4 0  9991,2 55643  70.0003   8.0228 0002994 271.9099  88.1717 14.98328333 72045,6950.198,96.107,574.144,569.982,0.0
55643.0,STARLINK-5483,PAYLOAD,2024-06-04 07:16:23,14.98323088,0.0002732,70.0014,6.8444,267.7244,92.3603,0.00014516,1.639e-05,0.0,0 STARLINK-5483,1 55643U 23021R   24156.30305370  .00001639  00000-0  14516-3 0  9999,2 55643  70.0014   6.8444 0002732 267.7244  92.3603 14.98323088 72412,6950.214,96.107,573.978,570.18,0.0
55643.0,STARLINK-5483,PAYLOAD,2024-06-04 20:05:27,14.98336402,0.0002754,70.0015,5.4983,266.4097,93.6748,-6.4471e-05,-8.62e-06,0.0,0 STARLINK-5483,1 55643U 23021R   24156.83712928 -.00000862  00000-0 -64471-4 0  9993,2 55643  70.0015   5.4983 0002754 266.4097  93.6748 14.98336402 72195,6950.173,96.107,573.952,570.124,0.0
55643.0,STARLINK-5483,PAYLOAD,2024-06-05 13:42:57,14.98327952,0.000273,69.9997,3.6459,271.9989,88.0858,6.9345e-08,-9.2e-07,0.0,0 STARLINK-5483,1 55643U 23021R   24157.57149340 -.00000092  00000-0  69345-7 0  9999,2 55643  69.9997   3.6459 0002730 271.9989  88.0858 14.98327952 72600,6950.199,96.107,573.962,570.167,0.0
55643.0,STARLINK-5483,PAYLOAD,2024-06-05 20:07:29,14.98330128,0.000324,69.994,2.9699,269.1744,90.9044,-9.7122e-05,-1.252e-05,0.0,0 STARLINK-5483,1 55643U 23021R   24157.83853421 -.00001252  00000-0 -97122-4 0  9991,2 55643  69.9940   2.9699 0003240 269.1744  90.9044 14.98330128 72340,6950.192,96.107,574.309,569.806,0.0
55643.0,STARLINK-5483,PAYLOAD,2024-06-06 07:20:25,14.98323286,0.0003251,70.001,1.7933,268.3711,91.7075,4.5779e-05,4.53e-06,0.0,0 STARLINK-5483,1 55643U 23021R   24158.30585397  .00000453  00000-0  45779-4 0  9999,2 55643  70.0010   1.7933 0003251 268.3711  91.7075 14.98323286 72717,6950.214,96.107,574.338,569.819,0.0
55643.0,STARLINK-5483,PAYLOAD,2024-06-06 23:21:45,14.98338965,0.0003073,69.998,0.1101,268.1562,91.9246,7.2435e-06,-7e-08,0.0,0 STARLINK-5483,1 55643U 23021R   24158.97344579 -.00000007  00000-0  72435-5 0  9993,2 55643  69.9980   0.1101 0003073 268.1562  91.9246 14.98338965 72514,6950.165,96.106,574.166,569.894,0.0
55643.0,STARLINK-5483,PAYLOAD,2024-06-07 20:11:31,14.98327533,0.0003055,69.9977,357.9218,270.2467,89.8342,3.5656e-05,3.32e-06,0.0,0 STARLINK-5483,1 55643U 23021R   24159.84133173  .00000332  00000-0  35656-4 0  9999,2 55643  69.9977 357.9218 0003055 270.2467  89.8342 14.98327533 72646,6950.201,96.107,574.189,569.942,0.0
55643.0,STARLINK-5483,PAYLOAD,2024-06-07 21:47:39,14.98327144,0.0003115,69.9982,357.7537,270.4631,89.6171,2.9578e-05,2.6e-06,0.0,0 STARLINK-5483,1 55643U 23021R   24159.90809218  .00000260  00000-0  29578-4 0  9992,2 55643  69.9982 357.7537 0003115 270.4631  89.6171 14.98327144 72956,6950.202,96.107,574.232,569.902,0.0
55643.0,STARLINK-5483,PAYLOAD,2024-06-07 23:23:47,14.98329618,0.0003061,70.0004,357.5854,270.3687,89.7121,5.0243e-05,5.07e-06,0.0,0 STARLINK-5483,1 55643U 23021R   24159.97485013  .00000507  00000-0  50243-4 0  9999,2 55643  70.0004 357.5854 0003061 270.3687  89.7121 14.98329618 72969,6950.194,96.107,574.187,569.932,0.0
55643.0,STARLINK-5483,PAYLOAD,2024-06-08 21:49:39,14.98331266,0.0003052,70.0009,355.2284,273.7121,86.3689,1.9428e-05,1.39e-06,0.0,0 STARLINK-5483,1 55643U 23021R   24160.90948831  .00000139  00000-0  19428-4 0  9997,2 55643  70.0009 355.2284 0003052 273.7121  86.3689 14.98331266 73107,6950.189,96.107,574.175,569.933,0.0
55643.0,STARLINK-5483,PAYLOAD,2024-06-08 23:25:47,14.98332531,0.0003011,70.0014,355.0603,273.4723,86.6092,3.0666e-05,2.73e-06,0.0,0 STARLINK-5483,1 55643U 23021R   24160.97624724  .00000273  00000-0  30666-4 0  9992,2 55643  70.0014 355.0603 0003011 273.4723  86.6092 14.98332531 72810,6950.185,96.107,574.143,569.957,0.0
55643.0,STARLINK-5483,PAYLOAD,2024-06-09 05:50:20,14.98330786,0.0003068,70.0011,354.3866,274.2562,85.8247,9.4153e-06,1.9e-07,0.0,0 STARLINK-5483,1 55643U 23021R   24161.24328852  .00000019  00000-0  94153-5 0  9996,2 55643  70.0011 354.3866 0003068 274.2562  85.8247 14.98330786 73153,6950.19,96.107,574.188,569.923,0.0
55643.0,STARLINK-5483,PAYLOAD,2024-06-09 18:39:25,14.98326426,0.0002898,70.001,353.0414,269.1528,90.9299,-3.2667e-05,-4.83e-06,0.0,0 STARLINK-5483,1 55643U 23021R   24161.77737305 -.00000483  00000-0 -32667-4 0  9999,2 55643  70.0010 353.0414 0002898 269.1528  90.9299 14.98326426 72937,6950.204,96.107,574.083,570.055,0.0
55643.0,STARLINK-5483,PAYLOAD,2024-06-09 21:51:41,14.98325921,0.0002912,70.0009,352.7048,268.5826,91.5,-4.0851e-05,-5.8e-06,0.0,0 STARLINK-5483,1 55643U 23021R   24161.91089386 -.00000580  00000-0 -40851-4 0  9996,2 55643  70.0009 352.7048 0002912 268.5826  91.5000 14.98325921 73257,6950.206,96.107,574.094,570.047,0.0
55643.0,STARLINK-5483,PAYLOAD,2024-06-10 13:53:01,14.98329887,0.0002958,70.0017,351.0211,268.1053,91.9768,1.1631e-05,4.6e-07,0.0,0 STARLINK-5483,1 55643U 23021R   24162.57849020  .00000046  00000-0  11631-4 0  9997,2 55643  70.0017 351.0211 0002958 268.1053  91.9768 14.98329887 73359,6950.193,96.107,574.114,570.002,0.0
